[{"OBJECT_NAME":"STARLINK-3764","OBJECT_ID":"2022-041V","EPOCH":"2026-03-09T12:34:55.006464","MEAN_MOTION":15.08835355,"ECCENTRICITY":0.0001432,"INCLINATION":53.2165,"RA_OF_ASC_NODE":109.8637,"ARG_OF_PERICENTER":101.2795,"MEAN_ANOMALY":258.8358,"EPHEMERIS_TYPE":0,"CLASSIFICATION_TYPE":"U","NORAD_CAT_ID":52280,"ELEMENT_SET_NO":999,"REV_AT_EPOCH":21434,"BSTAR":-3.1397e-5,"MEAN_MOTION_DOT":-7.88e-6,"MEAN_MOTION_DDOT":0},{"OBJECT_NAME":"YUNYAO-1 46","OBJECT_ID":"2025-059D","EPOCH":"2026-03-09T22:34:36.342624","MEAN_MOTION":15.10325082,"ECCENTRICITY":0.00132847,"INCLINATION":97.6091,"RA_OF_ASC_NODE":250.9055,"ARG_OF_PERICENTER":123.8801,"MEAN_ANOMALY":236.3694,"EPHEMERIS_TYPE":0,"CLASSIFICATION_TYPE":"U","NORAD_CAT_ID":63347,"ELEMENT_SET_NO":999,"REV_AT_EPOCH":5331,"BSTAR":0.0002771923,"MEAN_MOTION_DOT":4.488e-5,"MEAN_MOTION_DDOT":0}]
